OBJECT_NAME,OBJECT_ID,EPOCH,MEAN_MOTION,ECCENTRICITY,INCLINATION,RA_OF_ASC_NODE,ARG_OF_PERICENTER,MEAN_ANOMALY,EPHEMERIS_TYPE,CLASSIFICATION_TYPE,NORAD_CAT_ID,ELEMENT_SET_NO,REV_AT_EPOCH,BSTAR,MEAN_MOTION_DOT,MEAN_MOTION_DDOT
IRIDIUM 156,2018-061H,2026-07-16T15:06:30.446784,14.34217869,.00021,86.3936,44.4129,92.3965,267.7471,0,U,43576,999,41759,.11888E-4,.53E-6,0
IRIDIUM 164,2018-061J,2026-07-16T14:39:06.520032,14.34218542,.0002335,86.3938,44.4618,89.2963,270.8500,0,U,43577,999,41763,.3618E-4,.121E-5,0
IRIDIUM 159,2018-061K,2026-07-16T15:33:54.465120,14.34217542,.0002135,86.3935,44.3821,85.6584,274.4856,0,U,43578,999,41760,.73658E-5,.4E-6,0
IRIDIUM 180,2019-002A,2026-07-16T10:31:46.963200,14.34217682,.0002167,86.3993,341.3694,91.4734,268.6710,0,U,43922,999,39318,.31162E-4,.107E-5,0
IRIDIUM 176,2019-002B,2026-07-16T10:52:35.120928,14.72249935,.0002337,86.6113,341.3027,90.3320,269.8164,0,U,43923,999,40355,.55155E-4,.372E-5,0
IRIDIUM 168,2019-002C,2026-07-16T12:03:06.992928,14.34216748,.0002082,86.3990,341.4210,90.4943,269.6492,0,U,43924,999,39317,-.51329E-5,.5E-7,0
IRIDIUM 173,2019-002D,2026-07-16T15:05:46.970304,14.34217647,.0002028,86.3987,341.2559,92.7467,267.3961,0,U,43925,999,39317,-.32072E-4,-.7E-6,0
IRIDIUM 169,2019-002E,2026-07-16T12:50:39.177888,14.38613463,.0001938,86.4222,12.9195,104.4406,255.7007,0,U,43926,999,39444,.98432E-5,.5E-6,0
IRIDIUM 172,2019-002F,2026-07-16T11:35:43.016928,14.34217607,.0002181,86.3991,341.3243,91.1165,269.0281,0,U,43927,999,39316,.36412E-5,.3E-6,0
IRIDIUM 175,2019-002G,2026-07-16T10:58:26.730048,14.43627621,.0005376,86.4513,278.2868,112.9979,247.1789,0,U,43928,999,40320,.45176E-4,.173E-5,0
IRIDIUM 171,2019-002H,2026-07-16T19:30:38.963808,14.34217806,.0002248,86.4001,341.4960,95.0235,265.1218,0,U,43929,999,39320,.10599E-4,.49E-6,0
IRIDIUM 170,2019-002J,2026-07-16T19:10:50.238048,14.72250831,.0002241,86.6112,341.1602,87.0653,273.0821,0,U,43930,999,40361,.56411E-4,.38E-5,0
IRIDIUM 167,2019-002K,2026-07-16T19:21:30.958848,14.34217731,.0002324,86.3994,341.2120,98.4319,261.7140,0,U,43931,999,39320,.46657E-5,.33E-6,0
IRIDIUM 181,2023-068S,2026-07-15T12:45:21.585312,14.43312397,.00024121,86.4474,44.9372,83.4871,276.6605,0,U,56726,999,16652,.45155381E-4,.172E-5,0
IRIDIUM 177,2023-068T,2026-07-16T14:19:28.100064,14.80025350,.0002195,86.1986,314.8288,96.2807,263.8664,0,U,56727,999,17071,.7842E-4,.62E-5,0
IRIDIUM 174,2023-068U,2026-07-16T20:30:46.729728,14.72259501,.0001981,86.6121,341.2873,89.1391,271.0053,0,U,56728,999,17038,.57962E-4,.39E-5,0
IRIDIUM 178,2023-068V,2026-07-15T21:50:01.740768,14.80026522,.0002309,86.6536,13.3547,90.9107,269.2379,0,U,56729,999,17061,.20564E-4,.182E-5,0
IRIDIUM 179,2023-068W,2026-07-15T00:36:38.349504,14.80033495,.00023212,86.6767,22.7863,93.3552,266.7935,0,U,56730,999,17048,.14650918E-4,.137E-5,0
